ONEWEB-0249             
1 48967U 21060A   25045.30361210 -.00000106  00000+0 -31118-3 0  9990
2 48967  87.9130 326.0116 0001763  75.6236 284.5091 13.16594292175418
ONEWEB-0250             
1 48968U 21060B   25045.47189229  .00000126  00000+0  25866-3 0  9990
2 48968  87.9129 325.3285 0002955  79.1560 280.9909 13.25701592175599
ONEWEB-0252             
1 48970U 21060D   25045.48726200  .00000064  00000+0  13318-3 0  9990
2 48970  87.9132 325.9682 0001483  85.8857 274.2444 13.16592224175489
ONEWEB-0253             
1 48971U 21060E   25045.47618266  .00000091  00000+0  20492-3 0  9993
2 48971  87.9129 325.9774 0001955  83.8657 276.2697 13.16592758175415
ONEWEB-0254             
1 48972U 21060F   25045.48570205 -.00000081  00000+0 -24564-3 0  9990
2 48972  87.9132 325.9575 0002225  82.8727 277.2657 13.16595638175414
ONEWEB-0255             
1 48973U 21060G   25045.52368606 -.00000213  00000+0 -59102-3 0  9999
2 48973  87.9130 325.9838 0002031  82.3423 277.7938 13.16593630175493
ONEWEB-0256             
1 48974U 21060H   25045.47382253  .00000095  00000+0  21368-3 0  9997
2 48974  87.9134 326.0043 0001616  79.5222 280.6091 13.16594409175455
ONEWEB-0257             
1 48975U 21060J   25045.50626645 -.00000166  00000+0 -46765-3 0  9997
2 48975  87.9129 325.9620 0001821  85.2629 274.8710 13.16593602176708
